{"type":"FeatureCollection","features":[{"type":"Feature","geometry":{"type":"Point","coordinates":[-71.43106,45.08571]},"properties":{"name":"Old log yard, Comstock Hill","note":"Gravel yard from the last cut, at the end of the woods road along Indian Stream. Take Comstock Hill Road west over the Indian Stream bridge, then the woods road west and south (about 0.4 mi past the bridge). Comstock Hill Road is a privately owned Headwaters road: don't drive around a closed gate.","confirmed_by":"Adam (knows it from the ground)","checked_on":"2026-10-10"}}]}