{"type":"FeatureCollection","features":[{"type":"Feature","id":0,"geometry":{"type":"Point","coordinates":[-71.32461,44.1085]},"properties":{"id":"p-047-001-22000-fo~N27#s46755585","kind":"saddle","score":55,"unit_id":"p-047-001-22000-fo~N27","status":"verified"}},{"type":"Feature","id":1,"geometry":{"type":"Point","coordinates":[-71.31565,44.192]},"properties":{"id":"p-047-001-22000-fo~M23#s450559765","kind":"saddle","score":50,"unit_id":"p-047-001-22000-fo~M23","status":"verified"}},{"type":"Feature","id":2,"geometry":{"type":"Point","coordinates":[-71.30795,44.18339]},"properties":{"id":"p-047-001-22000-fo~M23#b458958995","kind":"bench","score":35,"unit_id":"p-047-001-22000-fo~M23","status":"verified"}},{"type":"Feature","id":3,"geometry":{"type":"Point","coordinates":[-71.38597,44.19633]},"properties":{"id":"p-047-001-22000-fo~J23#s395158795","kind":"saddle","score":60,"unit_id":"p-047-001-22000-fo~J23","status":"verified"}},{"type":"Feature","id":4,"geometry":{"type":"Point","coordinates":[-71.30863,44.21786]},"properties":{"id":"p-047-001-22000-fo~M21#s4485512695","kind":"saddle","score":50,"unit_id":"p-047-001-22000-fo~M21","status":"verified"}},{"type":"Feature","id":5,"geometry":{"type":"Point","coordinates":[-71.33521,44.24806]},"properties":{"id":"p-047-001-22000-fo~L20#s4194515405","kind":"saddle","score":60,"unit_id":"p-047-001-22000-fo~L20","status":"verified"}},{"type":"Feature","id":6,"geometry":{"type":"Point","coordinates":[-71.28846,44.23891]},"properties":{"id":"p-047-001-22000-fo~M20#s4580515375","kind":"saddle","score":65,"unit_id":"p-047-001-22000-fo~M20","status":"verified"}},{"type":"Feature","id":7,"geometry":{"type":"Point","coordinates":[-71.49184,44.31608]},"properties":{"id":"p-047-001-22000-fo~E18#s2795519545","kind":"saddle","score":50,"unit_id":"p-047-001-22000-fo~E18","status":"verified"}},{"type":"Feature","id":8,"geometry":{"type":"Point","coordinates":[-71.40977,44.3007]},"properties":{"id":"p-047-001-22000-fo~H18#s3470519555","kind":"saddle","score":55,"unit_id":"p-047-001-22000-fo~H18","status":"verified"}},{"type":"Feature","id":9,"geometry":{"type":"Point","coordinates":[-71.42385,44.29287]},"properties":{"id":"p-047-001-22000-fo~G18#s3384518425","kind":"saddle","score":55,"unit_id":"p-047-001-22000-fo~G18","status":"verified"}},{"type":"Feature","id":10,"geometry":{"type":"Point","coordinates":[-71.40839,44.30898]},"properties":{"id":"p-047-001-22000-fo~H17#s3457520475","kind":"saddle","score":65,"unit_id":"p-047-001-22000-fo~H17","status":"verified"}},{"type":"Feature","id":11,"geometry":{"type":"Point","coordinates":[-71.38974,44.30527]},"properties":{"id":"p-047-001-22000-fo~I17#s3611520455","kind":"saddle","score":65,"unit_id":"p-047-001-22000-fo~I17","status":"verified"}},{"type":"Feature","id":12,"geometry":{"type":"Point","coordinates":[-71.31641,44.29407]},"properties":{"id":"p-047-001-22000-fo~L17#b4207520745","kind":"bench","score":65,"unit_id":"p-047-001-22000-fo~L17","status":"verified"}},{"type":"Feature","id":13,"geometry":{"type":"Point","coordinates":[-71.31743,44.25638]},"properties":{"id":"p-047-001-22000-fo~L19#s4307516665","kind":"saddle","score":70,"unit_id":"p-047-001-22000-fo~L19","status":"verified"}},{"type":"Feature","id":14,"geometry":{"type":"Point","coordinates":[-71.32436,44.2629]},"properties":{"id":"p-047-001-22000-fo~L19#b4235517225","kind":"bench","score":55,"unit_id":"p-047-001-22000-fo~L19","status":"verified"}},{"type":"Feature","id":15,"geometry":{"type":"Point","coordinates":[-71.31549,44.28396]},"properties":{"id":"p-047-001-22000-fo~L18#s4243519675","kind":"saddle","score":80,"unit_id":"p-047-001-22000-fo~L18","status":"verified"}},{"type":"Feature","id":16,"geometry":{"type":"Point","coordinates":[-71.25366,44.24092]},"properties":{"id":"p-047-001-22000-fo~O19#b4842516305","kind":"bench","score":35,"unit_id":"p-047-001-22000-fo~O19","status":"verified"}},{"type":"Feature","id":17,"geometry":{"type":"Point","coordinates":[-71.22463,44.24904]},"properties":{"id":"p-047-001-22000-fo~P19#s5042517775","kind":"saddle","score":50,"unit_id":"p-047-001-22000-fo~P19","status":"verified"}},{"type":"Feature","id":18,"geometry":{"type":"Point","coordinates":[-71.22641,44.24288]},"properties":{"id":"p-047-001-22000-fo~P19#b5046517075","kind":"bench","score":40,"unit_id":"p-047-001-22000-fo~P19","status":"verified"}},{"type":"Feature","id":19,"geometry":{"type":"Point","coordinates":[-71.25502,44.27108]},"properties":{"id":"p-047-001-22000-fo~N18#b4745519525","kind":"bench","score":65,"unit_id":"p-047-001-22000-fo~N18","status":"verified"}},{"type":"Feature","id":20,"geometry":{"type":"Point","coordinates":[-71.24217,44.27067]},"properties":{"id":"p-047-001-22000-fo~O18#b4845519745","kind":"bench","score":60,"unit_id":"p-047-001-22000-fo~O18","status":"verified"}},{"type":"Feature","id":21,"geometry":{"type":"Point","coordinates":[-71.2043,44.25232]},"properties":{"id":"p-047-001-22000-fo~P18#s5189518545","kind":"saddle","score":55,"unit_id":"p-047-001-22000-fo~P18","status":"verified"}},{"type":"Feature","id":22,"geometry":{"type":"Point","coordinates":[-71.23989,44.27293]},"properties":{"id":"p-047-001-22000-fo~O17#b4856520035","kind":"bench","score":50,"unit_id":"p-047-001-22000-fo~O17","status":"verified"}},{"type":"Feature","id":23,"geometry":{"type":"Point","coordinates":[-71.20672,44.27367]},"properties":{"id":"p-047-001-22000-fo~P17#s5109520795","kind":"saddle","score":60,"unit_id":"p-047-001-22000-fo~P17","status":"verified"}},{"type":"Feature","id":24,"geometry":{"type":"Point","coordinates":[-71.21793,44.29308]},"properties":{"id":"p-047-001-22000-fo~O16#s4967522655","kind":"saddle","score":70,"unit_id":"p-047-001-22000-fo~O16","status":"verified"}},{"type":"Feature","id":25,"geometry":{"type":"Point","coordinates":[-71.17435,44.25904]},"properties":{"id":"p-047-001-22000-fo~Q18#s5400519885","kind":"saddle","score":40,"unit_id":"p-047-001-22000-fo~Q18","status":"verified"}},{"type":"Feature","id":26,"geometry":{"type":"Point","coordinates":[-71.11379,44.23818]},"properties":{"id":"p-047-001-22000-fo~T18#s5926518885","kind":"saddle","score":85,"unit_id":"p-047-001-22000-fo~T18","status":"verified"}},{"type":"Feature","id":27,"geometry":{"type":"Point","coordinates":[-71.17495,44.29427]},"properties":{"id":"p-047-001-22000-fo~Q16#s5294523665","kind":"saddle","score":50,"unit_id":"p-047-001-22000-fo~Q16","status":"verified"}},{"type":"Feature","id":28,"geometry":{"type":"Point","coordinates":[-71.17292,44.28162]},"properties":{"id":"p-047-001-22000-fo~Q16#s5346522345","kind":"saddle","score":50,"unit_id":"p-047-001-22000-fo~Q16","status":"verified"}},{"type":"Feature","id":29,"geometry":{"type":"Point","coordinates":[-71.10092,44.24268]},"properties":{"id":"p-047-001-22000-fo~U18#s6012519635","kind":"saddle","score":65,"unit_id":"p-047-001-22000-fo~U18","status":"verified"}},{"type":"Feature","id":30,"geometry":{"type":"Point","coordinates":[-71.0998,44.24079]},"properties":{"id":"p-047-001-22000-fo~U18#b6026519455","kind":"bench","score":63,"unit_id":"p-047-001-22000-fo~U18","status":"verified"}},{"type":"Feature","id":31,"geometry":{"type":"Point","coordinates":[-71.07493,44.25163]},"properties":{"id":"p-047-001-22000-fo~U17#s6186521135","kind":"saddle","score":58,"unit_id":"p-047-001-22000-fo~U17","status":"verified"}},{"type":"Feature","id":32,"geometry":{"type":"Point","coordinates":[-71.07874,44.27921]},"properties":{"id":"p-047-001-22000-fo~U16#s6077524025","kind":"saddle","score":45,"unit_id":"p-047-001-22000-fo~U16","status":"verified"}},{"type":"Feature","id":33,"geometry":{"type":"Point","coordinates":[-71.05369,44.27422]},"properties":{"id":"p-047-001-22000-fo~V16#s6284524005","kind":"saddle","score":50,"unit_id":"p-047-001-22000-fo~V16","status":"verified"}},{"type":"Feature","id":34,"geometry":{"type":"Point","coordinates":[-71.38557,44.37466]},"properties":{"id":"p-038-008~C5#s3445528015","kind":"saddle","score":78,"unit_id":"p-038-008~C5","status":"unknown"}},{"type":"Feature","id":35,"geometry":{"type":"Point","coordinates":[-71.40097,44.41804]},"properties":{"id":"p-047-001-22000-fo~G12#s3203532375","kind":"saddle","score":65,"unit_id":"p-047-001-22000-fo~G12","status":"verified"}},{"type":"Feature","id":36,"geometry":{"type":"Point","coordinates":[-71.41512,44.43325]},"properties":{"id":"p-047-001-22000-fo~F11#s3051533725","kind":"saddle","score":60,"unit_id":"p-047-001-22000-fo~F11","status":"verified"}},{"type":"Feature","id":37,"geometry":{"type":"Point","coordinates":[-71.26245,44.33935]},"properties":{"id":"p-047-001-22000-fo~M14#s4492526725","kind":"saddle","score":60,"unit_id":"p-047-001-22000-fo~M14","status":"verified"}},{"type":"Feature","id":38,"geometry":{"type":"Point","coordinates":[-71.26741,44.33444]},"properties":{"id":"p-047-001-22000-fo~M14#s4468526095","kind":"saddle","score":35,"unit_id":"p-047-001-22000-fo~M14","status":"verified"}},{"type":"Feature","id":39,"geometry":{"type":"Point","coordinates":[-71.3449,44.38006]},"properties":{"id":"p-038-008~D4#s3742529425","kind":"saddle","score":70,"unit_id":"p-038-008~D4","status":"unknown"}},{"type":"Feature","id":40,"geometry":{"type":"Point","coordinates":[-71.32038,44.39101]},"properties":{"id":"p-038-008~E3#s3899531105","kind":"saddle","score":75,"unit_id":"p-038-008~E3","status":"unknown"}},{"type":"Feature","id":41,"geometry":{"type":"Point","coordinates":[-71.31273,44.40071]},"properties":{"id":"p-038-004~D3#s3930532305","kind":"saddle","score":70,"unit_id":"p-038-004~D3","status":"verified"}},{"type":"Feature","id":42,"geometry":{"type":"Point","coordinates":[-71.24207,44.34234]},"properties":{"id":"p-047-001-22000-fo~N14#b4640527465","kind":"bench","score":65,"unit_id":"p-047-001-22000-fo~N14","status":"verified"}},{"type":"Feature","id":43,"geometry":{"type":"Point","coordinates":[-71.1443,44.299]},"properties":{"id":"p-047-001-22000-fo~R15#s5516524805","kind":"saddle","score":63,"unit_id":"p-047-001-22000-fo~R15","status":"verified"}},{"type":"Feature","id":44,"geometry":{"type":"Point","coordinates":[-71.16246,44.30609]},"properties":{"id":"p-047-001-22000-fo~Q15#b5356525195","kind":"bench","score":45,"unit_id":"p-047-001-22000-fo~Q15","status":"verified"}},{"type":"Feature","id":45,"geometry":{"type":"Point","coordinates":[-71.15373,44.32244]},"properties":{"id":"p-047-001-22000-fo~Q14#s5376527135","kind":"saddle","score":45,"unit_id":"p-047-001-22000-fo~Q14","status":"verified"}},{"type":"Feature","id":46,"geometry":{"type":"Point","coordinates":[-71.12037,44.31941]},"properties":{"id":"p-047-001-22000-fo~S14#b5641527495","kind":"bench","score":45,"unit_id":"p-047-001-22000-fo~S14","status":"verified"}},{"type":"Feature","id":47,"geometry":{"type":"Point","coordinates":[-71.14866,44.32658]},"properties":{"id":"p-047-001-22000-fo~R14#s5403527685","kind":"saddle","score":35,"unit_id":"p-047-001-22000-fo~R14","status":"verified"}},{"type":"Feature","id":48,"geometry":{"type":"Point","coordinates":[-71.12646,44.31983]},"properties":{"id":"p-047-001-22000-fo~R14#b5593527415","kind":"bench","score":35,"unit_id":"p-047-001-22000-fo~R14","status":"verified"}},{"type":"Feature","id":49,"geometry":{"type":"Point","coordinates":[-71.1457,44.34766]},"properties":{"id":"p-047-001-22000-fo~Q13#s5365530015","kind":"saddle","score":45,"unit_id":"p-047-001-22000-fo~Q13","status":"verified"}},{"type":"Feature","id":50,"geometry":{"type":"Point","coordinates":[-71.14318,44.33148]},"properties":{"id":"p-047-001-22000-fo~R13#s5431528325","kind":"saddle","score":45,"unit_id":"p-047-001-22000-fo~R13","status":"verified"}},{"type":"Feature","id":51,"geometry":{"type":"Point","coordinates":[-71.12886,44.34119]},"properties":{"id":"p-047-001-22000-fo~R13#b5513529665","kind":"bench","score":40,"unit_id":"p-047-001-22000-fo~R13","status":"verified"}},{"type":"Feature","id":52,"geometry":{"type":"Point","coordinates":[-71.11328,44.34834]},"properties":{"id":"p-047-001-22000-fo~S12#s5612530755","kind":"saddle","score":50,"unit_id":"p-047-001-22000-fo~S12","status":"verified"}},{"type":"Feature","id":53,"geometry":{"type":"Point","coordinates":[-71.08971,44.35182]},"properties":{"id":"p-047-001-22000-fo~S12#s5783531615","kind":"saddle","score":45,"unit_id":"p-047-001-22000-fo~S12","status":"verified"}},{"type":"Feature","id":54,"geometry":{"type":"Point","coordinates":[-71.09267,44.34914]},"properties":{"id":"p-047-001-22000-fo~S12#b5768531265","kind":"bench","score":45,"unit_id":"p-047-001-22000-fo~S12","status":"verified"}},{"type":"Feature","id":55,"geometry":{"type":"Point","coordinates":[-71.05842,44.28618]},"properties":{"id":"p-047-001-22000-fo~V15#b6213525195","kind":"bench","score":40,"unit_id":"p-047-001-22000-fo~V15","status":"verified"}},{"type":"Feature","id":56,"geometry":{"type":"Point","coordinates":[-71.04181,44.30092]},"properties":{"id":"p-047-001-22000-fo~V14#s6298527125","kind":"saddle","score":65,"unit_id":"p-047-001-22000-fo~V14","status":"verified"}},{"type":"Feature","id":57,"geometry":{"type":"Point","coordinates":[-71.03465,44.2923]},"properties":{"id":"p-047-001-22000-fo~V14#s6378526345","kind":"saddle","score":55,"unit_id":"p-047-001-22000-fo~V14","status":"verified"}},{"type":"Feature","id":58,"geometry":{"type":"Point","coordinates":[-71.05551,44.33923]},"properties":{"id":"p-047-001-22000-fo~U12#b6082530965","kind":"bench","score":55,"unit_id":"p-047-001-22000-fo~U12","status":"verified"}},{"type":"Feature","id":59,"geometry":{"type":"Point","coordinates":[-71.43533,44.42759]},"properties":{"id":"p-047-001-22000-fo~E11#s2912532705","kind":"saddle","score":65,"unit_id":"p-047-001-22000-fo~E11","status":"verified"}},{"type":"Feature","id":60,"geometry":{"type":"Point","coordinates":[-71.40707,44.48437]},"properties":{"id":"p-047-001-22000-fo~E8#s2967539395","kind":"saddle","score":55,"unit_id":"p-047-001-22000-fo~E8","status":"verified"}},{"type":"Feature","id":61,"geometry":{"type":"Point","coordinates":[-71.06954,44.45213]},"properties":{"id":"p-040-004#s5648542825","kind":"saddle","score":65,"unit_id":"p-040-004","status":"unknown"}},{"type":"Feature","id":62,"geometry":{"type":"Point","coordinates":[-71.12891,44.44442]},"properties":{"id":"p-040-004#s5215540775","kind":"saddle","score":65,"unit_id":"p-040-004","status":"unknown"}},{"type":"Feature","id":63,"geometry":{"type":"Point","coordinates":[-71.022,44.48476]},"properties":{"id":"p-040-004#s5918547315","kind":"saddle","score":60,"unit_id":"p-040-004","status":"unknown"}},{"type":"Feature","id":64,"geometry":{"type":"Point","coordinates":[-71.11166,44.44243]},"properties":{"id":"p-040-004#b5353540915","kind":"bench","score":50,"unit_id":"p-040-004","status":"unknown"}},{"type":"Feature","id":65,"geometry":{"type":"Point","coordinates":[-71.1247,44.36511]},"properties":{"id":"p-047-001-22000-fo~R11#s5476532325","kind":"saddle","score":65,"unit_id":"p-047-001-22000-fo~R11","status":"verified"}},{"type":"Feature","id":66,"geometry":{"type":"Point","coordinates":[-71.07244,44.37936]},"properties":{"id":"p-047-001-22000-fo~T10#s5836534935","kind":"saddle","score":90,"unit_id":"p-047-001-22000-fo~T10","status":"verified"}},{"type":"Feature","id":67,"geometry":{"type":"Point","coordinates":[-71.46566,44.54434]},"properties":{"id":"p-047-001-22000-fo~B6-2#s2347544665","kind":"saddle","score":75,"unit_id":"p-047-001-22000-fo~B6-2","status":"verified"}},{"type":"Feature","id":68,"geometry":{"type":"Point","coordinates":[-71.41164,44.50436]},"properties":{"id":"p-047-001-22000-fo~E7#s2875541455","kind":"saddle","score":50,"unit_id":"p-047-001-22000-fo~E7","status":"verified"}},{"type":"Feature","id":69,"geometry":{"type":"Point","coordinates":[-71.40388,44.51646]},"properties":{"id":"p-047-001-22000-fo~E6#s2900542915","kind":"saddle","score":58,"unit_id":"p-047-001-22000-fo~E6","status":"verified"}},{"type":"Feature","id":70,"geometry":{"type":"Point","coordinates":[-71.41236,44.51926]},"properties":{"id":"p-047-001-22000-fo~E6#s2827543045","kind":"saddle","score":55,"unit_id":"p-047-001-22000-fo~E6","status":"verified"}},{"type":"Feature","id":71,"geometry":{"type":"Point","coordinates":[-71.41673,44.52259]},"properties":{"id":"p-047-001-22000-fo~D7-2#s2784543315","kind":"saddle","score":45,"unit_id":"p-047-001-22000-fo~D7-2","status":"verified"}},{"type":"Feature","id":72,"geometry":{"type":"Point","coordinates":[-71.44509,44.54177]},"properties":{"id":"p-047-001-22000-fo~C5#s2512544805","kind":"saddle","score":65,"unit_id":"p-047-001-22000-fo~C5","status":"verified"}},{"type":"Feature","id":73,"geometry":{"type":"Point","coordinates":[-71.45647,44.55329]},"properties":{"id":"p-047-001-22000-fo~C5#s2392545815","kind":"saddle","score":45,"unit_id":"p-047-001-22000-fo~C5","status":"verified"}},{"type":"Feature","id":74,"geometry":{"type":"Point","coordinates":[-71.4423,44.56789]},"properties":{"id":"p-047-001-22000-fo~C4#s2459547675","kind":"saddle","score":60,"unit_id":"p-047-001-22000-fo~C4","status":"verified"}},{"type":"Feature","id":75,"geometry":{"type":"Point","coordinates":[-71.45258,44.56165]},"properties":{"id":"p-047-001-22000-fo~C4#s2398546795","kind":"saddle","score":50,"unit_id":"p-047-001-22000-fo~C4","status":"verified"}},{"type":"Feature","id":76,"geometry":{"type":"Point","coordinates":[-71.42477,44.56905]},"properties":{"id":"p-047-001-22000-fo~D5-2#s2590548155","kind":"saddle","score":58,"unit_id":"p-047-001-22000-fo~D5-2","status":"verified"}},{"type":"Feature","id":77,"geometry":{"type":"Point","coordinates":[-71.32808,44.52592]},"properties":{"id":"p-047-001-22000-fo~H5#s3454545475","kind":"saddle","score":73,"unit_id":"p-047-001-22000-fo~H5","status":"verified"}},{"type":"Feature","id":78,"geometry":{"type":"Point","coordinates":[-71.34645,44.53896]},"properties":{"id":"p-047-001-22000-fo~G4#s3276546505","kind":"saddle","score":70,"unit_id":"p-047-001-22000-fo~G4","status":"verified"}},{"type":"Feature","id":79,"geometry":{"type":"Point","coordinates":[-71.06919,44.45791]},"properties":{"id":"p-040-015~B4#s5634543455","kind":"saddle","score":75,"unit_id":"p-040-015~B4","status":"unknown"}},{"type":"Feature","id":80,"geometry":{"type":"Point","coordinates":[-71.48003,44.65057]},"properties":{"id":"p-025-001~B12#s1935555815","kind":"saddle","score":75,"unit_id":"p-025-001~B12","status":"verified"}},{"type":"Feature","id":81,"geometry":{"type":"Point","coordinates":[-71.33367,44.55782]},"properties":{"id":"p-047-001-22000-fo~G4-2#s3320548795","kind":"saddle","score":68,"unit_id":"p-047-001-22000-fo~G4-2","status":"verified"}},{"type":"Feature","id":82,"geometry":{"type":"Point","coordinates":[-71.54728,44.71275]},"properties":{"id":"p-024-010#s1244561155","kind":"saddle","score":65,"unit_id":"p-024-010","status":"unknown"}},{"type":"Feature","id":83,"geometry":{"type":"Point","coordinates":[-71.54694,44.72569]},"properties":{"id":"p-024-010#s1210562555","kind":"saddle","score":60,"unit_id":"p-024-010","status":"unknown"}},{"type":"Feature","id":84,"geometry":{"type":"Point","coordinates":[-71.55323,44.71646]},"properties":{"id":"p-024-010#s1188561435","kind":"saddle","score":50,"unit_id":"p-024-010","status":"unknown"}},{"type":"Feature","id":85,"geometry":{"type":"Point","coordinates":[-71.55131,44.74248]},"properties":{"id":"p-019-003~B6#s1129564275","kind":"saddle","score":75,"unit_id":"p-019-003~B6","status":"unknown"}},{"type":"Feature","id":86,"geometry":{"type":"Point","coordinates":[-71.56351,44.75581]},"properties":{"id":"p-019-003~A5#s998565465","kind":"saddle","score":75,"unit_id":"p-019-003~A5","status":"unknown"}},{"type":"Feature","id":87,"geometry":{"type":"Point","coordinates":[-71.46856,44.67582]},"properties":{"id":"p-025-001~B10#s1951558765","kind":"saddle","score":83,"unit_id":"p-025-001~B10","status":"verified"}},{"type":"Feature","id":88,"geometry":{"type":"Point","coordinates":[-71.39383,44.6641]},"properties":{"id":"p-025-001~E10#s2556559015","kind":"saddle","score":85,"unit_id":"p-025-001~E10","status":"verified"}},{"type":"Feature","id":89,"geometry":{"type":"Point","coordinates":[-71.35881,44.67738]},"properties":{"id":"p-026-004#b2786561155","kind":"bench","score":65,"unit_id":"p-026-004","status":"verified"}},{"type":"Feature","id":90,"geometry":{"type":"Point","coordinates":[-71.51487,44.78991]},"properties":{"id":"p-019-003~B3#s1273570115","kind":"saddle","score":70,"unit_id":"p-019-003~B3","status":"unknown"}},{"type":"Feature","id":91,"geometry":{"type":"Point","coordinates":[-71.53169,44.80067]},"properties":{"id":"p-018-004-31000-ce~A3#s1114570935","kind":"saddle","score":83,"unit_id":"p-018-004-31000-ce~A3","status":"unknown"}},{"type":"Feature","id":92,"geometry":{"type":"Point","coordinates":[-71.47163,44.74847]},"properties":{"id":"p-019-003~D5#s1721566525","kind":"saddle","score":65,"unit_id":"p-019-003~D5","status":"unknown"}},{"type":"Feature","id":93,"geometry":{"type":"Point","coordinates":[-71.4697,44.76808]},"properties":{"id":"p-019-003~D4#s1680568675","kind":"saddle","score":60,"unit_id":"p-019-003~D4","status":"unknown"}},{"type":"Feature","id":94,"geometry":{"type":"Point","coordinates":[-71.47445,44.76377]},"properties":{"id":"p-019-003~D4#s1656568115","kind":"saddle","score":60,"unit_id":"p-019-003~D4","status":"unknown"}},{"type":"Feature","id":95,"geometry":{"type":"Point","coordinates":[-71.49415,44.76885]},"properties":{"id":"p-019-003~C4#s1491568265","kind":"saddle","score":65,"unit_id":"p-019-003~C4","status":"unknown"}},{"type":"Feature","id":96,"geometry":{"type":"Point","coordinates":[-71.43658,44.78565]},"properties":{"id":"p-025-001~B4#s1883571235","kind":"saddle","score":70,"unit_id":"p-025-001~B4","status":"verified"}},{"type":"Feature","id":97,"geometry":{"type":"Point","coordinates":[-71.41578,44.77051]},"properties":{"id":"p-025-001~C5#s2085570025","kind":"saddle","score":75,"unit_id":"p-025-001~C5","status":"verified"}},{"type":"Feature","id":98,"geometry":{"type":"Point","coordinates":[-71.10471,44.7008]},"properties":{"id":"p-022-003-21000-fo~C9#s4661568855","kind":"saddle","score":70,"unit_id":"p-022-003-21000-fo~C9","status":"verified"}},{"type":"Feature","id":99,"geometry":{"type":"Point","coordinates":[-71.39758,44.79682]},"properties":{"id":"p-025-001~C4-2#s2149573225","kind":"saddle","score":65,"unit_id":"p-025-001~C4-2","status":"verified"}},{"type":"Feature","id":100,"geometry":{"type":"Point","coordinates":[-71.31055,44.78053]},"properties":{"id":"p-020-005#s2860573235","kind":"saddle","score":80,"unit_id":"p-020-005","status":"unknown"}},{"type":"Feature","id":101,"geometry":{"type":"Point","coordinates":[-71.19221,44.82834]},"properties":{"id":"p-021-003~B3#s3626580785","kind":"saddle","score":90,"unit_id":"p-021-003~B3","status":"unknown"}},{"type":"Feature","id":102,"geometry":{"type":"Point","coordinates":[-71.17564,44.82985]},"properties":{"id":"p-021-003~B3#b3748581285","kind":"bench","score":73,"unit_id":"p-021-003~B3","status":"unknown"}},{"type":"Feature","id":103,"geometry":{"type":"Point","coordinates":[-71.321,44.91179]},"properties":{"id":"p-014-002~B2#b2405587145","kind":"bench","score":73,"unit_id":"p-014-002~B2","status":"unknown"}},{"type":"Feature","id":104,"geometry":{"type":"Point","coordinates":[-71.3053,44.92845]},"properties":{"id":"p-014-001#s2477589255","kind":"saddle","score":55,"unit_id":"p-014-001","status":"verified"}},{"type":"Feature","id":105,"geometry":{"type":"Point","coordinates":[-71.31211,44.85713]},"properties":{"id":"p-014-002~C4#s2629581445","kind":"saddle","score":60,"unit_id":"p-014-002~C4","status":"unknown"}},{"type":"Feature","id":106,"geometry":{"type":"Point","coordinates":[-71.31378,44.90235]},"properties":{"id":"p-014-003#s2487586275","kind":"saddle","score":73,"unit_id":"p-014-003","status":"unknown"}},{"type":"Feature","id":107,"geometry":{"type":"Point","coordinates":[-71.32212,44.89062]},"properties":{"id":"p-014-003#s2457584845","kind":"saddle","score":73,"unit_id":"p-014-003","status":"unknown"}},{"type":"Feature","id":108,"geometry":{"type":"Point","coordinates":[-71.17715,44.84567]},"properties":{"id":"p-021-003~B3-2#b3691582955","kind":"bench","score":80,"unit_id":"p-021-003~B3-2","status":"unknown"}},{"type":"Feature","id":109,"geometry":{"type":"Point","coordinates":[-71.1544,44.83819]},"properties":{"id":"p-021-002#b3886582615","kind":"bench","score":73,"unit_id":"p-021-002","status":"verified"}},{"type":"Feature","id":110,"geometry":{"type":"Point","coordinates":[-71.1502,44.88929]},"properties":{"id":"p-016-001~B6#s3771588195","kind":"saddle","score":55,"unit_id":"p-016-001~B6","status":"verified"}},{"type":"Feature","id":111,"geometry":{"type":"Point","coordinates":[-71.10254,44.83002]},"properties":{"id":"p-022-003-21000-fo~B2#s4305582795","kind":"saddle","score":70,"unit_id":"p-022-003-21000-fo~B2","status":"verified"}},{"type":"Feature","id":112,"geometry":{"type":"Point","coordinates":[-71.07375,44.84993]},"properties":{"id":"p-021-003~F2#s4467585525","kind":"saddle","score":73,"unit_id":"p-021-003~F2","status":"unknown"}},{"type":"Feature","id":113,"geometry":{"type":"Point","coordinates":[-71.06372,44.8629]},"properties":{"id":"p-016-001~E6#b4506587125","kind":"bench","score":63,"unit_id":"p-016-001~E6","status":"verified"}},{"type":"Feature","id":114,"geometry":{"type":"Point","coordinates":[-71.42087,44.96689]},"properties":{"id":"p-013-013#s1487591055","kind":"saddle","score":90,"unit_id":"p-013-013","status":"unknown"}},{"type":"Feature","id":115,"geometry":{"type":"Point","coordinates":[-71.23093,44.96836]},"properties":{"id":"p-005-001~L20#s2929595055","kind":"saddle","score":75,"unit_id":"p-005-001~L20","status":"verified"}},{"type":"Feature","id":116,"geometry":{"type":"Point","coordinates":[-71.19601,44.96483]},"properties":{"id":"p-005-001~N20#s3205595385","kind":"saddle","score":90,"unit_id":"p-005-001~N20","status":"verified"}},{"type":"Feature","id":117,"geometry":{"type":"Point","coordinates":[-71.11422,44.89939]},"properties":{"id":"p-016-001~C5#s4016590015","kind":"saddle","score":70,"unit_id":"p-016-001~C5","status":"verified"}},{"type":"Feature","id":118,"geometry":{"type":"Point","coordinates":[-71.13802,44.90484]},"properties":{"id":"p-016-001~B5#s3819590115","kind":"saddle","score":75,"unit_id":"p-016-001~B5","status":"verified"}},{"type":"Feature","id":119,"geometry":{"type":"Point","coordinates":[-71.13319,44.89332]},"properties":{"id":"p-016-001~B5#s3889588975","kind":"saddle","score":75,"unit_id":"p-016-001~B5","status":"verified"}},{"type":"Feature","id":120,"geometry":{"type":"Point","coordinates":[-71.12984,44.89175]},"properties":{"id":"p-016-001~B5#s3919588875","kind":"saddle","score":75,"unit_id":"p-016-001~B5","status":"verified"}},{"type":"Feature","id":121,"geometry":{"type":"Point","coordinates":[-71.07475,44.90584]},"properties":{"id":"p-016-001~D4#s4298591515","kind":"saddle","score":75,"unit_id":"p-016-001~D4","status":"verified"}},{"type":"Feature","id":122,"geometry":{"type":"Point","coordinates":[-71.0608,44.89174]},"properties":{"id":"p-016-001~E4#s4445590285","kind":"saddle","score":45,"unit_id":"p-016-001~E4","status":"verified"}},{"type":"Feature","id":123,"geometry":{"type":"Point","coordinates":[-71.06311,44.92754]},"properties":{"id":"p-016-001~D3#s4324594085","kind":"saddle","score":73,"unit_id":"p-016-001~D3","status":"verified"}},{"type":"Feature","id":124,"geometry":{"type":"Point","coordinates":[-71.06114,44.93516]},"properties":{"id":"p-016-001~D2#s4317594945","kind":"saddle","score":65,"unit_id":"p-016-001~D2","status":"verified"}},{"type":"Feature","id":125,"geometry":{"type":"Point","coordinates":[-71.12134,44.9573]},"properties":{"id":"p-016-001~B2#b3795596095","kind":"bench","score":65,"unit_id":"p-016-001~B2","status":"verified"}},{"type":"Feature","id":126,"geometry":{"type":"Point","coordinates":[-71.11029,44.95697]},"properties":{"id":"p-016-001~B2#s3880596285","kind":"saddle","score":50,"unit_id":"p-016-001~B2","status":"verified"}},{"type":"Feature","id":127,"geometry":{"type":"Point","coordinates":[-71.45787,45.0412]},"properties":{"id":"p-008-002#b994598305","kind":"bench","score":70,"unit_id":"p-008-002","status":"unknown"}},{"type":"Feature","id":128,"geometry":{"type":"Point","coordinates":[-71.39707,45.07511]},"properties":{"id":"p-008-003#s136053175","kind":"saddle","score":48,"unit_id":"p-008-003","status":"unknown"}},{"type":"Feature","id":129,"geometry":{"type":"Point","coordinates":[-71.22414,45.01916]},"properties":{"id":"p-005-001~L17#s28355655","kind":"saddle","score":70,"unit_id":"p-005-001~L17","status":"verified"}},{"type":"Feature","id":130,"geometry":{"type":"Point","coordinates":[-71.19527,44.99325]},"properties":{"id":"p-005-001~M19#s3129598455","kind":"saddle","score":73,"unit_id":"p-005-001~M19","status":"verified"}},{"type":"Feature","id":131,"geometry":{"type":"Point","coordinates":[-71.1517,45.03999]},"properties":{"id":"p-005-001~N16#s332654365","kind":"saddle","score":83,"unit_id":"p-005-001~N16","status":"verified"}},{"type":"Feature","id":132,"geometry":{"type":"Point","coordinates":[-71.06743,44.95357]},"properties":{"id":"p-016-001~D1#s4216596795","kind":"saddle","score":80,"unit_id":"p-016-001~D1","status":"verified"}},{"type":"Feature","id":133,"geometry":{"type":"Point","coordinates":[-71.0844,44.96601]},"properties":{"id":"p-016-001~C1#s4051597785","kind":"saddle","score":90,"unit_id":"p-016-001~C1","status":"verified"}},{"type":"Feature","id":134,"geometry":{"type":"Point","coordinates":[-71.3843,45.13446]},"properties":{"id":"p-005-001~D13#s128859815","kind":"saddle","score":85,"unit_id":"p-005-001~D13","status":"verified"}},{"type":"Feature","id":135,"geometry":{"type":"Point","coordinates":[-71.38899,45.14687]},"properties":{"id":"p-005-001~D12#s1217511055","kind":"saddle","score":90,"unit_id":"p-005-001~D12","status":"verified"}},{"type":"Feature","id":136,"geometry":{"type":"Point","coordinates":[-71.37739,45.142]},"properties":{"id":"p-005-001~D12#s1319510765","kind":"saddle","score":90,"unit_id":"p-005-001~D12","status":"verified"}},{"type":"Feature","id":137,"geometry":{"type":"Point","coordinates":[-71.37621,45.15601]},"properties":{"id":"p-005-001~D12#s1288512295","kind":"saddle","score":90,"unit_id":"p-005-001~D12","status":"verified"}},{"type":"Feature","id":138,"geometry":{"type":"Point","coordinates":[-71.11773,45.0637]},"properties":{"id":"p-005-001~O14#s351657605","kind":"saddle","score":85,"unit_id":"p-005-001~O14","status":"verified"}},{"type":"Feature","id":139,"geometry":{"type":"Point","coordinates":[-71.08741,45.10094]},"properties":{"id":"p-005-001~P12#s3639512225","kind":"saddle","score":70,"unit_id":"p-005-001~P12","status":"verified"}},{"type":"Feature","id":140,"geometry":{"type":"Point","coordinates":[-71.30423,45.15656]},"properties":{"id":"p-005-001~G11#s1833513805","kind":"saddle","score":83,"unit_id":"p-005-001~G11","status":"verified"}},{"type":"Feature","id":141,"geometry":{"type":"Point","coordinates":[-71.08913,45.10509]},"properties":{"id":"p-005-001~P11#s3614512635","kind":"saddle","score":60,"unit_id":"p-005-001~P11","status":"verified"}},{"type":"Feature","id":142,"geometry":{"type":"Point","coordinates":[-71.08021,45.15561]},"properties":{"id":"p-005-001~O9#s3536518245","kind":"saddle","score":70,"unit_id":"p-005-001~O9","status":"verified"}},{"type":"Feature","id":143,"geometry":{"type":"Point","coordinates":[-71.25327,45.22811]},"properties":{"id":"p-005-001~H7#s2015522525","kind":"saddle","score":85,"unit_id":"p-005-001~H7","status":"verified"}},{"type":"Feature","id":144,"geometry":{"type":"Point","coordinates":[-71.24649,45.24256]},"properties":{"id":"p-006-004-32000-fo~B2#s2025524215","kind":"saddle","score":75,"unit_id":"p-006-004-32000-fo~B2","status":"verified"}},{"type":"Feature","id":145,"geometry":{"type":"Point","coordinates":[-71.22115,45.2283]},"properties":{"id":"p-006-004-32000-fo~C2#s2258523195","kind":"saddle","score":78,"unit_id":"p-006-004-32000-fo~C2","status":"verified"}},{"type":"Feature","id":146,"geometry":{"type":"Point","coordinates":[-71.11086,45.26548]},"properties":{"id":"p-005-001~M3#b2987529425","kind":"bench","score":65,"unit_id":"p-005-001~M3","status":"verified"}}]}